{
  "norad_id": 46689,
  "name": "STARLINK-1788",
  "history": [
    {
      "epoch": "2026-03-28T12:53:42.183456Z",
      "apogee_km": 371.8704061981125,
      "perigee_km": 365.8511396049971,
      "latitude_deg": -1.5327233736660514e-05,
      "longitude_deg": 106.65010742194838,
      "height_km": 367.4249179655704,
      "semi_major_axis_km": 6746.9977729015545,
      "eccentricity": 0.00044607,
      "inclination_deg": 53.0408,
      "raan_deg": 126.0322,
      "arg_perigee_deg": 39.1848,
      "mean_anomaly_deg": 320.9489,
      "mean_motion_rev_day": 15.66523491
    }
  ]
}